[{"website":"www.hlb.com.my\/","description":"Bank Services","longitude":"110.343567","opening_hours":"9am-5pm ","location":"No. 35, Jalan Khoo Hun Yeang, 93000 Kuching, Sarawak.","latitude":"1.558","name":"Hong Leong Bank, Jalan Khoo Hun Yeang","id":"0","picture":"..\/img\/places\/financial_institution\/Hong_Leong_Bank,_Jalan_Khoo_Hun_Yeang.png"},{"website":"www.cimbbank.com.my\/","description":"Bank Services","longitude":"110.343491","opening_hours":"9am-5pm ","location":"32 Jalan Khoo Hun Yeang 93000 Kuching, Sarawak","latitude":"1.557978","name":"CIMB Bank, Jalan Khoo Hun Yeang","id":"1","picture":"..\/img\/places\/financial_institution\/CIMB_Bank,_Jalan_Khoo_Hun_Yeang.png"},{"website":"www.uob.com.my\/","description":"Bank Services","longitude":"110.34568","opening_hours":"9am-5pm ","location":"1-3, Main Bazaar, Kuching, 93000, Kuching, Sarawak, 93000","latitude":"1.559598","name":"United Overseas Bank, Main Bazaar","id":"2","picture":"..\/img\/places\/financial_institution\/United_Overseas_Bank,_Main_Bazaar.png"},{"website":"www.maybank2u.com.my\/","description":"Bank Services","longitude":"110.354038","opening_hours":"9am-5pm ","location":"Lots 250-253,Jalan Tunku Abdul Rahman,93100 Kuching,Sarawak","latitude":"1.557463","name":"Maybank, Jalan Tunku Abdul Rahman","id":"3","picture":"..\/img\/places\/financial_institution\/Maybank,_Jalan_Tunku_Abdul_Rahman.png"},{"website":"www.cimbbank.com.my\/","description":"Bank Services","longitude":"110.352612","opening_hours":"9am-5pm ","location":"Lot 262, Section 48, Jalan Tunku Abdul Rahman Wisma Bukit Mata Kuching, 93100 Kuching, Sarawak","latitude":"1.557088","name":"CIMB Bank, Jalan Tunku Abdul Rahman","id":"4","picture":"..\/img\/places\/financial_institution\/CIMB_Bank,_Jalan_Tunku_Abdul.png"},{"website":"www.ocbc.com.my\/","description":"Bank Services","longitude":"110.352558","opening_hours":"9am-5pm ","location":"UG, Somerset Gateway, Jalan Bukit Mata, 93100, Kuching, Sarawak93100","latitude":"1.555453","name":"OCBC Bank, Jalan Bukit Mata","id":"5","picture":"..\/img\/places\/financial_institution\/OCBC_Bank,_Jalan_Bukit_Mata.png"},{"website":"www.hlb.com.my\/","description":"Bank Services","longitude":"110.35377","opening_hours":"9am-5pm ","location":"Lot 122 - 124, Jalan Song Thian Cheok, 93100, Kuching, Sarawak93100","latitude":"1.555962","name":"Hong Leong Bank, Jalan Song Thian Cheok","id":"6","picture":"..\/img\/places\/financial_institution\/Hong_Leong_Bank,_Jalan_Song_Thian_Cheok.png"},{"website":"www.pbebank.com\/","description":"Bank Services","longitude":"110.354156","opening_hours":"9am-5pm ","location":"102-110, Second Floor, Jalan Song Thian Cheok, Kuching, 93100, Kuching, Sarawak","latitude":"1.555576","name":"Public Bank, Jalan Song Thian Cheok","id":"8","picture":"..\/img\/places\/financial_institution\/Public_Bank,_Jalan_Song_Thian_Cheok.png"},{"website":"www.publicmutual.com.my\/","description":"Bank Services","longitude":"110.354339","opening_hours":"9am-5pm ","location":"Jalan Tunku Abdul Rahman93100 Kuching, Sarawak","latitude":"1.557329","name":"Public Mutual Fund, Jalan Tunku Abdul Rahman","id":"9","picture":"..\/img\/places\/financial_institution\/Public_Mutual_Fund,_Jalan_Tunku_Abdul_Rahman.png"},{"website":"www.alliancebank.com.my\/","description":"Bank Services","longitude":"110.354581","opening_hours":"9am-5pm ","location":"178, Jalan Chan Chin Ann, Kuching, 93100, Sarawak93100","latitude":"1.557147","name":"Alliance Bank, Jalan Chan Chin Ann","id":"10","picture":"..\/img\/places\/financial_institution\/Alliance_Bank,_Jalan_Chan_Chin_Ann.png"},{"website":"www.oskgroup.com\/","description":"Bank Services","longitude":"110.354666","opening_hours":"9am-5pm ","location":"171 Jalan Chan Chin Ann93100 Kuching, Sarawak","latitude":"1.557131","name":"OSK Investment bank, Jalan Chan Chin Ann","id":"11","picture":"..\/img\/places\/financial_institution\/OSK_Investment_bank,_Jalan_Chan_Chin_Ann.png"},{"website":"www.amesecurities.com.my\/","description":"Bank Services","longitude":"110.355761","opening_hours":"9am-5pm ","location":"No. 166, 1st Floor, Jalan Abell, 93100, Kuching, Sarawak93100","latitude":"1.556981","name":"AmInvestment Bank, Jalan Abell","id":"12","picture":"..\/img\/places\/financial_institution\/AmInvestment_Bank,_Jalan_Abell.png"},{"website":"www.uaeexchange.com\/","description":"Currency Exchange","longitude":"110.353256","opening_hours":"9am-6pm ","location":"18, Jalan Tunku Abdul Rahman93100 Kuching, Sarawak, Malaysia","latitude":"1.557002","name":"UAE Xchange, Jalan Tunku Abdul Rahman","id":"13","picture":"..\/img\/places\/financial_institution\/UAE_Xchange,_Jalan_Tunku_Abdul_Rahman.png"}]